[
  {
    "index": 28,
    "name": "STARLINK-31863",
    "tle1": "1 59789U 24093H   25311.64549056 -.00001186  00000+0 -33588-4 0  9995",
    "tle2": "2 59789  43.0000 177.8503 0001330 266.6299  93.4401 15.27570335 84039",
    "latitude": 41.56172095155901,
    "longitude": -83.19836239274589,
    "altitude": 486754.27588085947,
    "distance": 367105.0701153597
  },
  {
    "index": 29,
    "name": "STARLINK-1169",
    "tle1": "1 45061U 20006T   25312.15189689 -.00002656  00000+0 -15945-3 0  9991",
    "tle2": "2 45061  53.0540 112.2231 0002190  84.4049 275.7189 15.06395759318144",
    "latitude": 44.75501300848359,
    "longitude": -84.12117476775865,
    "altitude": 550575.4573435934,
    "distance": 367256.35541334737
  },
  {
    "index": 30,
    "name": "STARLINK-30301",
    "tle1": "1 57666U 23124D   25311.96596774  .00013993  00000+0  47665-3 0  9992",
    "tle2": "2 57666  53.1583 114.1850 0001019  76.5028 283.6086 15.30677634124031",
    "latitude": 45.20901422291077,
    "longitude": -83.89326636826026,
    "altitude": 477908.49146733765,
    "distance": 369206.34072466363
  },
  {
    "index": 31,
    "name": "STARLINK-34712",
    "tle1": "1 64907U 25157D   25311.98002861  .00054425  00000+0  13629-2 0  9994",
    "tle2": "2 64907  53.1564 197.1000 0001213  61.8437 298.2690 15.39576577 17409",
    "latitude": 46.99135856579702,
    "longitude": -79.3092592453664,
    "altitude": 451413.24163055833,
    "distance": 369425.55613146117
  },
  {
    "index": 32,
    "name": "DELTA 1 DEB",
    "tle1": "1 23310U 75052JZ  25310.75978141  .00000202  00000+0  73622-3 0  9997",
    "tle2": "2 23310  99.9292  59.1773 0321863 238.1110 287.2827 12.89869331556273",
    "latitude": 43.60200441448598,
    "longitude": -75.16749374282816,
    "altitude": 1334941.995039042,
    "distance": 369673.0934702904
  },
  {
    "index": 33,
    "name": "STARLINK-2367",
    "tle1": "1 47907U 21021AZ  25311.88512766 -.00000060  00000+0  14884-4 0  9993",
    "tle2": "2 47907  53.0502 108.4193 0002571 110.8143 249.3122 15.06384605257659",
    "latitude": 40.43252186892799,
    "longitude": -80.8531238354867,
    "altitude": 549193.2344350644,
    "distance": 372637.7420709273
  },
  {
    "index": 34,
    "name": "STARLINK-3568",
    "tle1": "1 51856U 22022E   25312.03079538 -.00000790  00000+0 -31580-4 0  9999",
    "tle2": "2 51856  53.2159 205.2785 0001301  87.1137 273.0004 15.08840729204683",
    "latitude": 45.174857356642555,
    "longitude": -75.31532097952424,
    "altitude": 543679.272210521,
    "distance": 389899.953015091
  },
  {
    "index": 35,
    "name": "STARLINK-33959",
    "tle1": "1 63817U 25092P   25311.90128424  .00025369  00000+0  92848-3 0  9993",
    "tle2": "2 63817  43.0000 139.9151 0001628 259.5475 100.5193 15.27570701 30048",
    "latitude": 40.693748637578814,
    "longitude": -77.1997446780916,
    "altitude": 486588.1924847545,
    "distance": 393770.6996791648
  },
  {
    "index": 36,
    "name": "DELTA 1 DEB",
    "tle1": "1 42651U 75052ML  25298.12348292  .00000609  00000+0  10043-2 0  9998",
    "tle2": "2 42651  99.2891 237.8880 0158237  64.7914 313.5359 13.46062483539723",
    "latitude": 40.5509162348882,
    "longitude": -82.24204484952246,
    "altitude": 977188.5565594912,
    "distance": 404020.1696043353
  },
  {
    "index": 37,
    "name": "STARLINK-31821",
    "tle1": "1 59737U 24090H   25311.83848463  .00000903  00000+0  42354-4 0  9995",
    "tle2": "2 59737  43.0013 151.7239 0001058 264.7920  95.2811 15.27557716 84808",
    "latitude": 43.07198899061535,
    "longitude": -84.75803739262871,
    "altitude": 486967.29220900213,
    "distance": 409510.42332556547
  },
  {
    "index": 38,
    "name": "STARLINK-32498",
    "tle1": "1 61966U 24210H   25311.57402485  .00021849  00000+0  80130-3 0  9992",
    "tle2": "2 61966  43.0016 134.7857 0001487 260.7495  99.3188 15.27573152 56403",
    "latitude": 40.16658184896491,
    "longitude": -81.8456747632582,
    "altitude": 486362.6868721594,
    "distance": 427445.60878702113
  },
  {
    "index": 39,
    "name": "COSMOS 1300",
    "tle1": "1 12785U 81082A   25311.87273336  .00107716  00000+0  79513-3 0  9992",
    "tle2": "2 12785  82.4763 244.4182 0005718  95.8280 264.3635 15.72627913418693",
    "latitude": 41.27485438457586,
    "longitude": -75.63000583638687,
    "altitude": 354495.6528102402,
    "distance": 431799.53802182555
  },
  {
    "index": 40,
    "name": "STARLINK-11695 [DTC]",
    "tle1": "1 63551U 25075D   25311.99361933  .00291729  00000+0  21865-2 0  9997",
    "tle2": "2 63551  43.0001 166.9292 0002378 283.1954  76.8648 15.70965985 34110",
    "latitude": 42.58461984772804,
    "longitude": -84.92929614063556,
    "altitude": 359246.6703471755,
    "distance": 436769.29803401657
  },
  {
    "index": 41,
    "name": "STARLINK-34021",
    "tle1": "1 63940U 25098Q   25312.09393226  .00008509  00000+0  71953-3 0  9992",
    "tle2": "2 63940  70.0027 221.2324 0001715 257.1230 102.9738 14.98359936 28333",
    "latitude": 46.458237317362695,
    "longitude": -83.78582916383088,
    "altitude": 579561.9685966703,
    "distance": 441536.21368421265
  },
  {
    "index": 42,
    "name": "CZ-6A DEB",
    "tle1": "1 54415U 22151EP  25311.80999027  .00001682  00000+0  13604-2 0  9998",
    "tle2": "2 54415  98.9953 248.3871 0354171  59.4954 304.0660 13.65945017148603",
    "latitude": 44.484028292240524,
    "longitude": -85.31281135634612,
    "altitude": 764144.918934956,
    "distance": 452192.5162370222
  },
  {
    "index": 43,
    "name": "STARLINK-32779",
    "tle1": "1 63030U 25034B   25312.16062455  .00064212  00000+0  21608-2 0  9991",
    "tle2": "2 63030  53.1583 115.8637 0001351  86.5896 273.5259 15.30209706 40293",
    "latitude": 41.94894190728216,
    "longitude": -74.71227688940183,
    "altitude": 478207.93059676635,
    "distance": 454642.44109565514
  },
  {
    "index": 44,
    "name": "STARLINK-3562",
    "tle1": "1 51861U 22022K   25311.96451660 -.00001403  00000+0 -70076-4 0  9991",
    "tle2": "2 51861  53.2158 195.5647 0001412  93.9955 266.1198 15.08837405204653",
    "latitude": 45.28044544699344,
    "longitude": -85.08739878961167,
    "altitude": 543707.9422412617,
    "distance": 458223.95042183314
  },
  {
    "index": 45,
    "name": "COSMOS 2251 DEB",
    "tle1": "1 34015U 93036HA  25311.73867066  .00010234  00000+0  21454-2 0  9996",
    "tle2": "2 34015  74.0252 226.2515 0021843 325.5948  61.8678 14.59639815880207",
    "latitude": 46.83461172611926,
    "longitude": -83.74311463377313,
    "altitude": 700011.9825510328,
    "distance": 468775.9503926533
  },
  {
    "index": 46,
    "name": "STARLINK-3675",
    "tle1": "1 51963U 22025H   25312.02976910  .00009641  00000+0  66618-3 0  9991",
    "tle2": "2 51963  53.0555 207.7226 0002092 101.9747 258.1477 15.06348773202717",
    "latitude": 44.506430012898875,
    "longitude": -73.9838211141555,
    "altitude": 550836.9336481,
    "distance": 470204.0938748582
  },
  {
    "index": 47,
    "name": "STARLINK-33997",
    "tle1": "1 63928U 25098C   25312.09376052  .00000487  00000+0  48576-4 0  9999",
    "tle2": "2 63928  70.0030 221.2339 0002213 263.3211  96.7696 14.98336049 28356",
    "latitude": 47.19874143140092,
    "longitude": -83.16440805274728,
    "altitude": 580080.7144293339,
    "distance": 472372.340981271
  },
  {
    "index": 48,
    "name": "STARLINK-6136",
    "tle1": "1 56540U 23065AP  25311.89138406 -.00000447  00000+0 -18054-4 0  9995",
    "tle2": "2 56540  43.0019 165.1320 0001287 270.9757  89.0938 15.02535963138156",
    "latitude": 42.713413910280266,
    "longitude": -85.43559576085747,
    "altitude": 563020.332758897,
    "distance": 472385.50145651976
  },
  {
    "index": 49,
    "name": "THOR ABLESTAR DEB",
    "tle1": "1 00324U 61015DA  25311.91192892  .00000408  00000+0  25526-3 0  9999",
    "tle2": "2 00324  66.8657 230.3634 0069453 196.9496 162.9274 14.13082519291806",
    "latitude": 43.34313798977938,
    "longitude": -73.85685578241844,
    "altitude": 896983.793635346,
    "distance": 477498.15913915914
  },
  {
    "index": 50,
    "name": "BREEZE-M DEB [TANK]",
    "tle1": "1 37750U 11035C   25311.35432895  .00000052  00000+0  46118-3 0  9992",
    "tle2": "2 37750  45.1756 147.7372 6307654 223.1596  65.0794  3.31052691172823",
    "latitude": 44.22181422177672,
    "longitude": -73.64149833449784,
    "altitude": 11117652.723387863,
    "distance": 493367.4852632227
  }
]